<?xml version="1.0" ?><gpx xmlns="http://www.topografix.com/GPX/1/1" creator="GaiaGPS" version="1.1" xmlns:xsi="http://www.w3.org/2001/XMLSchema-instance" xsi:schemaLocation="http://www.topografix.com/GPX/1/1 http://www.topografix.com/GPX/1/1/gpx.xsd"><trk><name>Fehr Lake</name><type>knownroute</type><trkseg><trkpt lat="40.692543" lon="-110.892571" ele="3173.0"/><trkpt lat="40.692092" lon="-110.891831" ele="3176.0"/><trkpt lat="40.691638" lon="-110.89132" ele="3176.0"/><trkpt lat="40.691215" lon="-110.890458" ele="3167.0"/><trkpt lat="40.691051" lon="-110.889863" ele="3165.0"/><trkpt lat="40.690826" lon="-110.889" ele="3154.0"/><trkpt lat="40.690662" lon="-110.888489" ele="3146.0"/><trkpt lat="40.690792" lon="-110.887414" ele="3141.0"/><trkpt lat="40.690856" lon="-110.886811" ele="3141.0"/><trkpt lat="40.690761" lon="-110.886384" ele="3143.0"/><trkpt lat="40.690418" lon="-110.886124" ele="3142.0"/><trkpt lat="40.689964" lon="-110.886124" ele="3142.0"/><trkpt lat="40.689296" lon="-110.88617" ele="3144.0"/><trkpt lat="40.688663" lon="-110.88617" ele="3147.0"/><trkpt lat="40.688255" lon="-110.886124" ele="3146.0"/><trkpt lat="40.687652" lon="-110.885865" ele="3150.0"/><trkpt lat="40.687114" lon="-110.885613" ele="3155.0"/><trkpt lat="40.686466" lon="-110.88514" ele="3160.0"/><trkpt lat="40.685977" lon="-110.884491" ele="3164.0"/><trkpt lat="40.685619" lon="-110.88398" ele="3166.0"/><trkpt lat="40.685195" lon="-110.883118" ele="3160.0"/><trkpt lat="40.684871" lon="-110.882348" ele="3148.0"/><trkpt lat="40.684642" lon="-110.881707" ele="3135.0"/><trkpt lat="40.684318" lon="-110.880974" ele="3123.0"/><trkpt lat="40.684253" lon="-110.87999" ele="3117.0"/><trkpt lat="40.684253" lon="-110.879174" ele="3108.0"/><trkpt lat="40.684448" lon="-110.878441" ele="3100.0"/><trkpt lat="40.684543" lon="-110.877846" ele="3100.0"/><trkpt lat="40.684528" lon="-110.87703" ele="3097.0"/><trkpt lat="40.68399" lon="-110.876473" ele="3081.0"/><trkpt lat="40.683555" lon="-110.876084" ele="3073.0"/><trkpt lat="40.683013" lon="-110.876038" ele="3060.0"/><trkpt lat="40.682819" lon="-110.875268" ele="3057.0"/><trkpt lat="40.682495" lon="-110.874451" ele="3060.0"/><trkpt lat="40.682071" lon="-110.873726" ele="3062.0"/><trkpt lat="40.681632" lon="-110.873253" ele="3059.0"/><trkpt lat="40.681095" lon="-110.872696" ele="3049.0"/><trkpt lat="40.68058" lon="-110.872101" ele="3035.0"/></trkseg></trk></gpx>